[{"OBJECT_NAME":"STARLINK-35928","OBJECT_ID":"2025-265N","EPOCH":"2026-03-09T22:34:01.919136","MEAN_MOTION":15.27614787,"ECCENTRICITY":0.00012239,"INCLINATION":42.9998,"RA_OF_ASC_NODE":276.3538,"ARG_OF_PERICENTER":276.2574,"MEAN_ANOMALY":83.8138,"EPHEMERIS_TYPE":0,"CLASSIFICATION_TYPE":"U","NORAD_CAT_ID":66528,"ELEMENT_SET_NO":999,"REV_AT_EPOCH":1715,"BSTAR":0.0011516534,"MEAN_MOTION_DOT":0.00031598,"MEAN_MOTION_DDOT":0},{"OBJECT_NAME":"BREEZE-M DEB [TANK]","OBJECT_ID":"2009-075C","EPOCH":"2026-03-09T02:33:42.023232","MEAN_MOTION":5.236492,"ECCENTRICITY":0.51237027,"INCLINATION":45.8842,"RA_OF_ASC_NODE":312.6926,"ARG_OF_PERICENTER":227.3347,"MEAN_ANOMALY":76.3419,"EPHEMERIS_TYPE":0,"CLASSIFICATION_TYPE":"U","NORAD_CAT_ID":36133,"ELEMENT_SET_NO":999,"REV_AT_EPOCH":30764,"BSTAR":0.00028359801,"MEAN_MOTION_DOT":2.0e-6,"MEAN_MOTION_DDOT":0}]
